stk.v.4.3 

BEGIN Ephemeris 
 
NumberOfEphemerisPoints		146 
ScenarioEpoch	    3 Sep 2020 17:34:11.631653309 
InterpolationMethod		Lagrange 
InterpolationOrder		5 
CentralBody				Earth 
CoordinateSystem			TEME 
CoordinateSystemEpoch	  3 Sep 2020 17:34:11.631653309 
DistanceUnit			Kilometers 
 
EphemerisTimePosVel 
 
       0.00000000   -4100.66525164    5867.96366302       0.03472186 -0.378771128 -0.276184195  7.448799812
 END Ephemeris 
